COSMOS 2361 [-]         
1 25590U 98076A   22286.06147730  .00000074  00000+0  63795-4 0  9993
2 25590  82.9304 119.2392 0030386 240.5776 232.9877 13.73030171192676
COSMOS 2378 [-]         
1 26818U 01023A   22284.11443440 -.00000143  00000+0 -16785-3 0  9999
2 26818  82.9257 138.5113 0032846 190.7023 169.3495 13.73976269 70194
COSMOS 2389 [-]         
1 27436U 02026A   22286.19665294  .00000051  00000+0  37334-4 0  9993
2 27436  82.9480  82.8700 0047328  48.3266 124.2555 13.74983742 22605
COSMOS 2398 [-]         
1 27818U 03023A   22283.33045080  .00000486  00000+0  51468-3 0  9998
2 27818  82.9506  46.9521 0032880  93.3953 267.0997 13.72219384969147
COSMOS 2407 [+]         
1 28380U 04028A   22284.26061531  .00000065  00000+0  50814-4 0  9999
2 28380  82.9642 350.6948 0040375  55.0545 305.4579 13.76122009915089
COSMOS 2414 [+]         
1 28521U 05002A   22280.22833380 -.00000005  00000+0 -16909-4 0  9993
2 28521  82.9533 343.7334 0039429 213.7830 146.0822 13.87666838897056
COSMOS 2429 [-]         
1 32052U 07038A   22286.04265938  .00000059  00000+0  45408-4 0  9995
2 32052  82.9765 115.6871 0039067  27.6659 332.6564 13.74971437757150
COSMOS 2454 [-]         
1 35635U 09039A   22280.25725981  .00000056  00000+0  32786-4 0  9996
2 35635  82.9584 329.8517 0019964 154.8128 205.4046 13.89696009670222
COSMOS 2463 [+]         
1 36519U 10017A   22286.19557396  .00000071  00000+0  62609-4 0  9992
2 36519  82.9614 156.3438 0034875 256.0639 223.9393 13.71481822623924
